      2.10          N: GNSS NAV DATA                        RINEX VERSION / TYPE
fic2rin                                 09/02/2020 00:17:39 PGM / RUN BY / DATE
                                                            END OF HEADER
19 20  9  1  2  0  0.0-1.109014265239e-04 5.115907697473e-12 0.000000000000e+00
    2.600000000000e+01 9.700000000000e+01 3.778014512326e-09 3.526739780582e-01
    5.133450031281e-06 9.312308393419e-03 9.626150131226e-06 5.153700077057e+03
    1.800000000000e+05-1.322478055954e-07 3.700565491521e-01-1.750886440277e-07
    9.821690729299e-01 2.124062500000e+02 1.708914571494e+00-7.802110703513e-09
    7.607459738377e-11 1.000000000000e+00 2.121000000000e+03 0.000000000000e+00
    2.400000000000e+00 0.000000000000e+00-1.536682248116e-08 2.600000000000e+01
    1.728000000000e+05 4.000000000000e+00
11 20  9  1  2  0  0.0-1.768996007740e-04 1.057287590811e-11 0.000000000000e+00
    2.200000000000e+01 1.016562500000e+02 5.600590429929e-09 1.444920744646e+00
    5.073845386505e-06 1.601042156108e-02 4.023313522339e-06 5.153717111588e+03
    1.800000000000e+05 3.501772880554e-07 8.405397663237e-01-1.844018697739e-07
    9.133014348535e-01 2.705625000000e+02 2.035092823911e+00-8.710719979308e-09
    3.014411276615e-10 1.000000000000e+00 2.121000000000e+03 0.000000000000e+00
    2.400000000000e+00 0.000000000000e+00-1.210719347000e-08 2.200000000000e+01
    1.728000000000e+05 4.000000000000e+00
 9 20  9  1  2  0  0.0-2.792133018374e-04-5.798028723802e-12 0.000000000000e+00
    6.100000000000e+01-1.875000000000e+00 4.590548357622e-09-1.738529017580e+00
    5.774199962616e-08 1.699206302874e-03 1.108273863792e-05 5.153670055389e+03
    1.800000000000e+05 0.000000000000e+00-2.891069345694e+00-1.676380634308e-08
    9.533084802333e-01 1.649687500000e+02 1.765561234781e+00-7.926044437279e-09
    5.071639825584e-10 1.000000000000e+00 2.121000000000e+03 0.000000000000e+00
    2.400000000000e+00 0.000000000000e+00 1.396983861923e-09 6.100000000000e+01
    1.728000000000e+05 4.000000000000e+00
27 20  9  1  2  0  0.0-3.848830237985e-04-9.094947017729e-12 0.000000000000e+00
    5.300000000000e+01 1.057500000000e+02 3.722655063526e-09-2.151434905408e+00
    5.537644028664e-06 8.331852382980e-03 1.086667180061e-05 5.153676517487e+03
    1.800000000000e+05 1.862645149231e-09 2.656218820461e-01-8.568167686462e-08
    9.779767271476e-01 1.792187500000e+02 5.782243278328e-01-7.567815229881e-09
    1.839362331110e-10 1.000000000000e+00 2.121000000000e+03 0.000000000000e+00
    2.400000000000e+00 0.000000000000e+00 1.862645149231e-09 5.300000000000e+01
    1.728000000000e+05 4.000000000000e+00
32 20  9  1  2  0  0.0 3.404463641346e-04 5.115907697473e-12 0.000000000000e+00
    4.000000000000e+01-7.687500000000e+00 4.442327897931e-09-1.461720196593e+00
   -3.390014171600e-07 4.118774551898e-03 1.169182360172e-05 5.153757455826e+03
    1.800000000000e+05 6.146728992462e-08-2.882240519515e+00 1.862645149231e-08
    9.573876458955e-01 1.508125000000e+02-2.445521394559e+00-7.825683113970e-09
    5.843100531448e-10 1.000000000000e+00 2.121000000000e+03 0.000000000000e+00
    2.400000000000e+00 0.000000000000e+00 4.656612873077e-10 4.000000000000e+01
    1.728000000000e+05 4.000000000000e+00
28 20  9  1  2  0  0.0 6.836033426225e-04-4.206412995700e-12 0.000000000000e+00
    3.200000000000e+01-1.703125000000e+01 4.176959701423e-09-1.385735643463e+00
   -8.158385753632e-07 1.841038384009e-02 9.797513484955e-06 5.153667011261e+03
    1.800000000000e+05-3.371387720108e-07-6.870246409225e-01 3.725290298462e-07
    9.762877852993e-01 2.017187500000e+02-1.398623027177e+00-7.925330121811e-09
   -6.861000073907e-10 1.000000000000e+00 2.121000000000e+03 0.000000000000e+00
    2.400000000000e+00 0.000000000000e+00-1.117587089539e-08 3.200000000000e+01
    1.728000000000e+05 4.000000000000e+00
31 20  9  1  2  0  0.0-6.581377238035e-05-2.387423592154e-12 0.000000000000e+00
    8.200000000000e+01 1.746875000000e+01 5.228789228631e-09 9.434781213194e-01
    1.106411218643e-06 9.627800784074e-03 4.278495907784e-06 5.153634599686e+03
    1.800000000000e+05 4.842877388000e-08-1.801452439142e+00 1.024454832077e-07
    9.567292566880e-01 2.913750000000e+02 1.527328401987e-01-8.442137363193e-09
    7.857470152314e-12 1.000000000000e+00 2.121000000000e+03 0.000000000000e+00
    2.400000000000e+00 0.000000000000e+00-1.303851604462e-08 8.200000000000e+01
    1.728000000000e+05 4.000000000000e+00
29 20  9  1  2  0  0.0-1.850700937212e-04-8.185452315956e-12 0.000000000000e+00
    1.120000000000e+02 1.179687500000e+02 3.698368337600e-09-2.018456339574e+00
    6.018206477165e-06 1.623431802727e-03 9.849667549133e-06 5.153763641357e+03
    1.800000000000e+05 1.117587089539e-08 3.365134672852e-01 3.166496753693e-08
    9.856190697104e-01 2.029687500000e+02 2.193131524617e+00-7.684248651229e-09
    1.542921411727e-10 1.000000000000e+00 2.121000000000e+03 0.000000000000e+00
    3.400000000000e+00 0.000000000000e+00-1.024454832077e-08 1.120000000000e+02
    1.728000000000e+05 4.000000000000e+00
22 20  9  1  2  0  0.0-7.589310407639e-04 3.637978807092e-12 0.000000000000e+00
    9.000000000000e+01-1.184375000000e+02 5.083783188547e-09-3.115083998678e+00
   -6.245449185371e-06 6.782179116271e-03 5.379319190979e-06 5.153751018524e+03
    1.800000000000e+05 7.823109626770e-08 2.271915836700e+00 4.842877388000e-08
    9.318003967695e-01 2.561250000000e+02-1.099612143648e+00-8.359991084328e-09
   -2.396528396456e-10 1.000000000000e+00 2.121000000000e+03 0.000000000000e+00
    2.400000000000e+00 0.000000000000e+00-1.816079020500e-08 9.000000000000e+01
    1.728000000000e+05 4.000000000000e+00
15 20  9  1  2  0  0.0-2.067522145808e-04 2.614797267597e-12 0.000000000000e+00
    6.500000000000e+01-1.068750000000e+01 4.960206612515e-09-3.010975035653e+00
   -8.270144462585e-07 1.266974036116e-02 1.238472759724e-05 5.153750400543e+03
    1.800000000000e+05 2.793967723846e-08-2.983044910057e+00-1.806765794754e-07
    9.289103070143e-01 1.234062500000e+02 9.109528091153e-01-7.939616431179e-09
    5.025209320139e-10 1.000000000000e+00 2.121000000000e+03 0.000000000000e+00
    2.400000000000e+00 0.000000000000e+00-1.071020960808e-08 6.500000000000e+01
    1.728000000000e+05 4.000000000000e+00
20 20  9  1  2  0  0.0 5.268775857985e-04-1.136868377216e-13 0.000000000000e+00
    4.900000000000e+01-1.266250000000e+02 5.103069706194e-09 1.463871857967e+00
   -6.552785634995e-06 5.545805674046e-03 5.327165126801e-06 5.153665885925e+03
    1.800000000000e+05 6.332993507385e-08 2.224763036299e+00 1.247972249985e-07
    9.350652612671e-01 2.631875000000e+02 2.699720222687e+00-8.476067347941e-09
   -3.217991185107e-10 1.000000000000e+00 2.121000000000e+03 0.000000000000e+00
    2.400000000000e+00 0.000000000000e+00-8.847564458847e-09 4.900000000000e+01
    1.728000000000e+05 4.000000000000e+00
26 20  9  1  2  0  0.0 2.711326815188e-04 6.480149750132e-12 0.000000000000e+00
    2.900000000000e+01-3.946875000000e+01 4.995922385935e-09-2.272761396035e-01
   -2.199783921242e-06 4.900301923044e-03 8.802860975266e-06 5.153667881012e+03
    1.800000000000e+05 7.264316082001e-08-8.167473143354e-01 1.862645149231e-08
    9.453041561468e-01 2.010625000000e+02 1.997914374525e-01-8.265701442500e-09
   -7.500312418118e-10 1.000000000000e+00 2.121000000000e+03 0.000000000000e+00
    2.400000000000e+00 0.000000000000e+00 6.984919309616e-09 2.900000000000e+01
    1.728000000000e+05 4.000000000000e+00
17 20  9  1  2  0  0.0 3.193765878677e-04 5.570655048359e-12 0.000000000000e+00
    7.600000000000e+01 1.036562500000e+02 3.650152043484e-09-2.245949557203e+00
    5.364418029785e-06 1.335458445828e-02 9.642913937569e-06 5.153752626419e+03
    1.800000000000e+05 2.346932888031e-07 3.245966682741e-01 1.117587089539e-08
    9.839123914433e-01 2.075625000000e+02-1.637636100014e+00-7.407451407227e-09
    1.207193141583e-10 1.000000000000e+00 2.121000000000e+03 0.000000000000e+00
    2.400000000000e+00 0.000000000000e+00-1.117587089539e-08 7.600000000000e+01
    1.728000000000e+05 4.000000000000e+00
18 20  9  1  2  0  0.0 2.815425395966e-04 7.503331289627e-12 0.000000000000e+00
    5.600000000000e+01 2.862500000000e+01 4.698767151084e-09 2.445532141156e+00
    1.514330506325e-06 9.756711078808e-04 1.054257154465e-06 5.153711603165e+03
    1.800000000000e+05-4.656612873077e-08 1.337296199297e+00-2.980232238770e-08
    9.645977195725e-01 3.613437500000e+02 2.697544417313e+00-8.481067556220e-09
    1.200049986899e-10 1.000000000000e+00 2.121000000000e+03 0.000000000000e+00
    2.400000000000e+00 0.000000000000e+00-8.381903171539e-09 3.120000000000e+02
    1.728000000000e+05 4.000000000000e+00
23 20  9  1  2  0  0.0 5.305046215653e-05 7.617018127348e-12 0.000000000000e+00
    1.130000000000e+02-1.304062500000e+02 4.448042421678e-09 2.221880449851e+00
   -6.750226020813e-06 9.805355221033e-04 7.057562470436e-06 5.153643550873e+03
    1.800000000000e+05 2.048909664154e-08 2.336762767320e+00 3.166496753693e-08
    9.615511092861e-01 2.445937500000e+02 1.801275107138e+00-8.122481191087e-09
   -2.696540893180e-10 1.000000000000e+00 2.121000000000e+03 0.000000000000e+00
    3.072000000000e+03 6.300000000000e+01-8.381903171539e-09 6.250000000000e+02
    1.728000000000e+05 4.000000000000e+00
 8 20  9  1  1 59 44.0-4.640268161893e-05-1.250555214938e-12 0.000000000000e+00
    1.400000000000e+01 9.778125000000e+01 3.986237471362e-09-2.009540986180e+00
    5.114823579788e-06 5.431858589873e-03 1.057982444763e-05 5.153718406677e+03
    1.799840000000e+05-3.352761268616e-08 2.505674295049e-01-2.793967723846e-08
    9.695130087483e-01 1.810937500000e+02-6.214547244837e-02-7.760323248613e-09
    1.532206679701e-10 1.000000000000e+00 2.121000000000e+03 0.000000000000e+00
    2.400000000000e+00 0.000000000000e+00 5.122274160385e-09 1.400000000000e+01
    1.733400000000e+05 4.000000000000e+00
